[{"CCSDS_OMM_VERS":"2.0","COMMENT":"GENERATED VIA SPACE-TRACK.ORG API","CREATION_DATE":"2016-11-18T15:55:56","ORIGINATOR":"18 SPCS","OBJECT_NAME":"GALILEO-FM3","OBJECT_ID":"2012-055A","CENTER_NAME":"EARTH","REF_FRAME":"TEME","TIME_SYSTEM":"UTC","MEAN_ELEMENT_THEORY":"SGP4","EPOCH":"2016-11-17T11:59:23.822592","MEAN_MOTION":"1.70473734","ECCENTRICITY":"0.00021170","INCLINATION":"54.9174","RA_OF_ASC_NODE":"197.8965","ARG_OF_PERICENTER":"219.2834","MEAN_ANOMALY":"140.8012","EPHEMERIS_TYPE":"0","CLASSIFICATION_TYPE":"U","NORAD_CAT_ID":"38857","ELEMENT_SET_NO":"999","REV_AT_EPOCH":"2551","BSTAR":"0.00000000000000","MEAN_MOTION_DOT":"0.00000026","MEAN_MOTION_DDOT":"0.0000000000000","SEMIMAJOR_AXIS":"29600.350","PERIOD":"844.704","APOAPSIS":"23228.482","PERIAPSIS":"23215.949","OBJECT_TYPE":"PAYLOAD","RCS_SIZE":"LARGE","COUNTRY_CODE":"ESA","LAUNCH_DATE":"2012-10-12","SITE":"FRGUI","DECAY_DATE":null,"FILE":"2115440","GP_ID":"108322666","TLE_LINE0":"0 GALILEO-FM3","TLE_LINE1":"1 38857U 12055A   16322.49958128 +.00000026 +00000-0 +00000-0 0  9992","TLE_LINE2":"2 38857 054.9174 197.8965 0002117 219.2834 140.8012 01.70473734025513"},{"CCSDS_OMM_VERS":"2.0","COMMENT":"GENERATED VIA SPACE-TRACK.ORG API","CREATION_DATE":"2016-11-19T16:21:42","ORIGINATOR":"18 SPCS","OBJECT_NAME":"GALILEO-FM3","OBJECT_ID":"2012-055A","CENTER_NAME":"EARTH","REF_FRAME":"TEME","TIME_SYSTEM":"UTC","MEAN_ELEMENT_THEORY":"SGP4","EPOCH":"2016-11-17T11:59:23.882208","MEAN_MOTION":"1.70473736","ECCENTRICITY":"0.00021050","INCLINATION":"54.9174","RA_OF_ASC_NODE":"197.8967","ARG_OF_PERICENTER":"219.2159","MEAN_ANOMALY":"140.8688","EPHEMERIS_TYPE":"0","CLASSIFICATION_TYPE":"U","NORAD_CAT_ID":"38857","ELEMENT_SET_NO":"999","REV_AT_EPOCH":"2551","BSTAR":"0.00000000000000","MEAN_MOTION_DOT":"0.00000026","MEAN_MOTION_DDOT":"0.0000000000000","SEMIMAJOR_AXIS":"29600.350","PERIOD":"844.704","APOAPSIS":"23228.446","PERIAPSIS":"23215.984","OBJECT_TYPE":"PAYLOAD","RCS_SIZE":"LARGE","COUNTRY_CODE":"ESA","LAUNCH_DATE":"2012-10-12","SITE":"FRGUI","DECAY_DATE":null,"FILE":"2115740","GP_ID":"108339535","TLE_LINE0":"0 GALILEO-FM3","TLE_LINE1":"1 38857U 12055A   16322.49958197 +.00000026 +00000-0 +00000-0 0  9998","TLE_LINE2":"2 38857 054.9174 197.8967 0002105 219.2159 140.8688 01.70473736025513"},{"CCSDS_OMM_VERS":"2.0","COMMENT":"GENERATED VIA SPACE-TRACK.ORG API","CREATION_DATE":"2016-11-21T22:31:46","ORIGINATOR":"18 SPCS","OBJECT_NAME":"GALILEO-FM3","OBJECT_ID":"2012-055A","CENTER_NAME":"EARTH","REF_FRAME":"TEME","TIME_SYSTEM":"UTC","MEAN_ELEMENT_THEORY":"SGP4","EPOCH":"2016-11-21T14:32:07.589760","MEAN_MOTION":"1.70473825","ECCENTRICITY":"0.00020200","INCLINATION":"54.9172","RA_OF_ASC_NODE":"197.7827","ARG_OF_PERICENTER":"216.9359","MEAN_ANOMALY":"143.1346","EPHEMERIS_TYPE":"0","CLASSIFICATION_TYPE":"U","NORAD_CAT_ID":"38857","ELEMENT_SET_NO":"999","REV_AT_EPOCH":"2559","BSTAR":"0.00000000000000","MEAN_MOTION_DOT":"0.00000016","MEAN_MOTION_DDOT":"0.0000000000000","SEMIMAJOR_AXIS":"29600.340","PERIOD":"844.704","APOAPSIS":"23228.184","PERIAPSIS":"23216.226","OBJECT_TYPE":"PAYLOAD","RCS_SIZE":"LARGE","COUNTRY_CODE":"ESA","LAUNCH_DATE":"2012-10-12","SITE":"FRGUI","DECAY_DATE":null,"FILE":"2116635","GP_ID":"108378896","TLE_LINE0":"0 GALILEO-FM3","TLE_LINE1":"1 38857U 12055A   16326.60564340  .00000016  00000-0  00000+0 0  9996","TLE_LINE2":"2 38857  54.9172 197.7827 0002020 216.9359 143.1346  1.70473825 25591"},{"CCSDS_OMM_VERS":"2.0","COMMENT":"GENERATED VIA SPACE-TRACK.ORG API","CREATION_DATE":"2016-11-24T16:38:24","ORIGINATOR":"18 SPCS","OBJECT_NAME":"GALILEO-FM3","OBJECT_ID":"2012-055A","CENTER_NAME":"EARTH","REF_FRAME":"TEME","TIME_SYSTEM":"UTC","MEAN_ELEMENT_THEORY":"SGP4","EPOCH":"2016-11-23T08:46:10.725888","MEAN_MOTION":"1.70473871","ECCENTRICITY":"0.00019820","INCLINATION":"54.9171","RA_OF_ASC_NODE":"197.7339","ARG_OF_PERICENTER":"215.5798","MEAN_ANOMALY":"144.4956","EPHEMERIS_TYPE":"0","CLASSIFICATION_TYPE":"U","NORAD_CAT_ID":"38857","ELEMENT_SET_NO":"999","REV_AT_EPOCH":"2561","BSTAR":"0.00000000000000","MEAN_MOTION_DOT":"0.00000028","MEAN_MOTION_DDOT":"0.0000000000000","SEMIMAJOR_AXIS":"29600.334","PERIOD":"844.704","APOAPSIS":"23228.066","PERIAPSIS":"23216.333","OBJECT_TYPE":"PAYLOAD","RCS_SIZE":"LARGE","COUNTRY_CODE":"ESA","LAUNCH_DATE":"2012-10-12","SITE":"FRGUI","DECAY_DATE":null,"FILE":"2117946","GP_ID":"108434157","TLE_LINE0":"0 GALILEO-FM3","TLE_LINE1":"1 38857U 12055A   16328.36540192 +.00000028 +00000-0 +00000-0 0  9994","TLE_LINE2":"2 38857 054.9171 197.7339 0001982 215.5798 144.4956 01.70473871025611"},{"CCSDS_OMM_VERS":"2.0","COMMENT":"GENERATED VIA SPACE-TRACK.ORG API","CREATION_DATE":"2016-11-24T14:30:58","ORIGINATOR":"18 SPCS","OBJECT_NAME":"GALILEO-FM3","OBJECT_ID":"2012-055A","CENTER_NAME":"EARTH","REF_FRAME":"TEME","TIME_SYSTEM":"UTC","MEAN_ELEMENT_THEORY":"SGP4","EPOCH":"2016-11-23T22:50:51.925632","MEAN_MOTION":"1.70473887","ECCENTRICITY":"0.00019740","INCLINATION":"54.9170","RA_OF_ASC_NODE":"197.7177","ARG_OF_PERICENTER":"215.2036","MEAN_ANOMALY":"144.8745","EPHEMERIS_TYPE":"0","CLASSIFICATION_TYPE":"U","NORAD_CAT_ID":"38857","ELEMENT_SET_NO":"999","REV_AT_EPOCH":"2563","BSTAR":"0.00000000000000","MEAN_MOTION_DOT":"0.00000033","MEAN_MOTION_DDOT":"0.0000000000000","SEMIMAJOR_AXIS":"29600.333","PERIOD":"844.704","APOAPSIS":"23228.041","PERIAPSIS":"23216.355","OBJECT_TYPE":"PAYLOAD","RCS_SIZE":"LARGE","COUNTRY_CODE":"ESA","LAUNCH_DATE":"2012-10-12","SITE":"FRGUI","DECAY_DATE":null,"FILE":"2117825","GP_ID":"108423071","TLE_LINE0":"0 GALILEO-FM3","TLE_LINE1":"1 38857U 12055A   16328.95198988  .00000033  00000-0  00000+0 0  9996","TLE_LINE2":"2 38857  54.9170 197.7177 0001974 215.2036 144.8745  1.70473887 25632"},{"CCSDS_OMM_VERS":"2.0","COMMENT":"GENERATED VIA SPACE-TRACK.ORG API","CREATION_DATE":"2016-11-28T22:32:44","ORIGINATOR":"18 SPCS","OBJECT_NAME":"GALILEO-FM3","OBJECT_ID":"2012-055A","CENTER_NAME":"EARTH","REF_FRAME":"TEME","TIME_SYSTEM":"UTC","MEAN_ELEMENT_THEORY":"SGP4","EPOCH":"2016-11-28T15:28:21.267840","MEAN_MOTION":"1.70473916","ECCENTRICITY":"0.00019250","INCLINATION":"54.9168","RA_OF_ASC_NODE":"197.5876","ARG_OF_PERICENTER":"212.4257","MEAN_ANOMALY":"147.6734","EPHEMERIS_TYPE":"0","CLASSIFICATION_TYPE":"U","NORAD_CAT_ID":"38857","ELEMENT_SET_NO":"999","REV_AT_EPOCH":"2571","BSTAR":"0.00000000000000","MEAN_MOTION_DOT":"0.00000065","MEAN_MOTION_DDOT":"0.0000000000000","SEMIMAJOR_AXIS":"29600.329","PERIOD":"844.704","APOAPSIS":"23227.892","PERIAPSIS":"23216.496","OBJECT_TYPE":"PAYLOAD","RCS_SIZE":"LARGE","COUNTRY_CODE":"ESA","LAUNCH_DATE":"2012-10-12","SITE":"FRGUI","DECAY_DATE":null,"FILE":"2119820","GP_ID":"108512366","TLE_LINE0":"0 GALILEO-FM3","TLE_LINE1":"1 38857U 12055A   16333.64469060  .00000065  00000-0  00000+0 0  9995","TLE_LINE2":"2 38857  54.9168 197.5876 0001925 212.4257 147.6734  1.70473916 25714"},{"CCSDS_OMM_VERS":"2.0","COMMENT":"GENERATED VIA SPACE-TRACK.ORG API","CREATION_DATE":"2016-12-01T16:26:08","ORIGINATOR":"18 SPCS","OBJECT_NAME":"GALILEO-FM3","OBJECT_ID":"2012-055A","CENTER_NAME":"EARTH","REF_FRAME":"TEME","TIME_SYSTEM":"UTC","MEAN_ELEMENT_THEORY":"SGP4","EPOCH":"2016-11-29T19:37:42.957984","MEAN_MOTION":"1.70473897","ECCENTRICITY":"0.00019080","INCLINATION":"54.9168","RA_OF_ASC_NODE":"197.5550","ARG_OF_PERICENTER":"211.3969","MEAN_ANOMALY":"148.7027","EPHEMERIS_TYPE":"0","CLASSIFICATION_TYPE":"U","NORAD_CAT_ID":"38857","ELEMENT_SET_NO":"999","REV_AT_EPOCH":"2572","BSTAR":"0.00000000000000","MEAN_MOTION_DOT":"0.00000070","MEAN_MOTION_DDOT":"0.0000000000000","SEMIMAJOR_AXIS":"29600.331","PERIOD":"844.704","APOAPSIS":"23227.844","PERIAPSIS":"23216.549","OBJECT_TYPE":"PAYLOAD","RCS_SIZE":"LARGE","COUNTRY_CODE":"ESA","LAUNCH_DATE":"2012-10-12","SITE":"FRGUI","DECAY_DATE":null,"FILE":"2120979","GP_ID":"108565733","TLE_LINE0":"0 GALILEO-FM3","TLE_LINE1":"1 38857U 12055A   16334.81785831 +.00000070 +00000-0 +00000-0 0  9999","TLE_LINE2":"2 38857 054.9168 197.5550 0001908 211.3969 148.7027 01.70473897025728"},{"CCSDS_OMM_VERS":"2.0","COMMENT":"GENERATED VIA SPACE-TRACK.ORG API","CREATION_DATE":"2016-12-02T22:28:55","ORIGINATOR":"18 SPCS","OBJECT_NAME":"GALILEO-FM3","OBJECT_ID":"2012-055A","CENTER_NAME":"EARTH","REF_FRAME":"TEME","TIME_SYSTEM":"UTC","MEAN_ELEMENT_THEORY":"SGP4","EPOCH":"2016-12-02T03:56:25.265184","MEAN_MOTION":"1.70473842","ECCENTRICITY":"0.00018960","INCLINATION":"54.9168","RA_OF_ASC_NODE":"197.4899","ARG_OF_PERICENTER":"209.1637","MEAN_ANOMALY":"150.9290","EPHEMERIS_TYPE":"0","CLASSIFICATION_TYPE":"U","NORAD_CAT_ID":"38857","ELEMENT_SET_NO":"999","REV_AT_EPOCH":"2577","BSTAR":"0.00000000000000","MEAN_MOTION_DOT":"0.00000074","MEAN_MOTION_DDOT":"0.0000000000000","SEMIMAJOR_AXIS":"29600.338","PERIOD":"844.704","APOAPSIS":"23227.815","PERIAPSIS":"23216.591","OBJECT_TYPE":"PAYLOAD","RCS_SIZE":"LARGE","COUNTRY_CODE":"ESA","LAUNCH_DATE":"2012-10-12","SITE":"FRGUI","DECAY_DATE":null,"FILE":"2121462","GP_ID":"108586045","TLE_LINE0":"0 GALILEO-FM3","TLE_LINE1":"1 38857U 12055A   16337.16418131  .00000074  00000-0  00000+0 0  9999","TLE_LINE2":"2 38857  54.9168 197.4899 0001896 209.1637 150.9290  1.70473842 25778"}]